NORAD_CAT_ID,OBJECT_NAME,OBJECT_TYPE,EPOCH,MEAN_MOTION,ECCENTRICITY,INCLINATION,RA_OF_ASC_NODE,ARG_OF_PERICENTER,MEAN_ANOMALY,BSTAR,MEAN_MOTION_DOT,MEAN_MOTION_DDOT,TLE_LINE0,TLE_LINE1,TLE_LINE2,SEMIMAJOR_AXIS,PERIOD,APOGEE,PERIGEE,DECAYED
51893.0,STARLINK-3579,PAYLOAD,2023-02-10 04:08:38,15.08858628,0.0001496,53.2167,2.793,118.6188,241.4955,0.0022423,0.00035597,0.0,0 STARLINK-3579,1 51893U 22022AT  23041.17267045  .00035597  00000-0  22423-2 0  9990,2 51893  53.2167   2.7930 0001496 118.6188 241.4955 15.08858628 53690,6917.823,95.436,540.723,538.654,0.0
51893.0,STARLINK-3579,PAYLOAD,2023-02-11 03:59:25,15.08878044,0.0001672,53.2159,358.3318,113.3561,246.7607,0.0019207,0.00030444,0.0,0 STARLINK-3579,1 51893U 22022AT  23042.16626342  .00030444  00000-0  19207-2 0  9991,2 51893  53.2159 358.3318 0001672 113.3561 246.7607 15.08878044 53847,6917.764,95.435,540.786,538.472,0.0
51893.0,STARLINK-3579,PAYLOAD,2023-02-12 05:25:35,15.08847092,0.0001343,53.2162,353.5731,101.2557,258.8586,0.0008801,0.00013749,0.0,0 STARLINK-3579,1 51893U 22022AT  23043.22610786  .00013749  00000-0  88010-3 0  9992,2 51893  53.2162 353.5731 0001343 101.2557 258.8586 15.08847092 54001,6917.859,95.437,540.653,538.795,0.0
51893.0,STARLINK-3579,PAYLOAD,2023-02-12 13:22:31,15.08839109,0.0001362,53.214,352.0838,51.7785,308.3329,0.00066257,0.00010272,0.0,0 STARLINK-3579,1 51893U 22022AT  23043.55731018  .00010272  00000-0  66257-3 0  9997,2 51893  53.2140 352.0838 0001362  51.7785 308.3329 15.08839109 54053,6917.883,95.438,540.69,538.806,0.0
51893.0,STARLINK-3579,PAYLOAD,2023-02-12 19:44:05,15.08780277,0.0002051,53.2159,350.8982,69.8803,290.2409,-0.00074341,-0.00012081,0.0,0 STARLINK-3579,1 51893U 22022AT  23043.82228918 -.00012081  00000-0 -74341-3 0  9992,2 51893  53.2159 350.8982 0002051  69.8803 290.2409 15.08780277 54099,6918.063,95.441,541.347,538.509,0.0
51893.0,STARLINK-3579,PAYLOAD,2023-02-13 05:16:26,15.08788785,0.0003091,53.2159,349.1142,69.3804,290.7519,0.00029986,4.481e-05,0.0,0 STARLINK-3579,1 51893U 22022AT  23044.21974644  .00004481  00000-0  29986-3 0  9998,2 51893  53.2159 349.1142 0003091  69.3804 290.7519 15.08788785 54155,6918.037,95.441,542.04,537.764,0.0
51893.0,STARLINK-3579,PAYLOAD,2023-02-13 13:13:21,15.0882785,0.000118,53.2151,347.6262,72.7112,287.4009,0.0013052,0.00020538,0.0,0 STARLINK-3579,1 51893U 22022AT  23044.55093923  .00020538  00000-0  13052-2 0  9994,2 51893  53.2151 347.6262 0001180  72.7112 287.4009 15.08827850 54200,6917.918,95.438,540.599,538.966,0.0
51893.0,STARLINK-3579,PAYLOAD,2023-02-14 13:04:07,15.08869088,0.000103,53.2151,343.1649,45.0592,315.0484,0.00083508,0.00013038,0.0,0 STARLINK-3579,1 51893U 22022AT  23045.54452740  .00013038  00000-0  83508-3 0  9991,2 51893  53.2151 343.1649 0001030  45.0592 315.0484 15.08869088 54359,6917.791,95.436,540.369,538.944,0.0
51893.0,STARLINK-3579,PAYLOAD,2023-02-15 01:47:12,15.08853301,0.0001417,53.2132,340.787,63.0435,297.0701,0.00030713,4.605e-05,0.0,0 STARLINK-3579,1 51893U 22022AT  23046.07444732  .00004605  00000-0  30713-3 0  9992,2 51893  53.2132 340.7870 0001417  63.0435 297.0701 15.08853301 54433,6917.84,95.437,540.685,538.724,0.0
51893.0,STARLINK-3579,PAYLOAD,2023-02-15 12:54:53,15.0885953,0.0001512,53.2146,338.7046,68.7876,291.3278,0.0007104,0.00011042,0.0,0 STARLINK-3579,1 51893U 22022AT  23046.53812476  .00011042  00000-0  71040-3 0  9998,2 51893  53.2146 338.7046 0001512  68.7876 291.3278 15.08859530 54501,6917.821,95.436,540.732,538.64,0.0
51893.0,STARLINK-3579,PAYLOAD,2023-02-16 01:37:58,15.08878036,0.0001658,53.2161,336.3264,88.871,271.2472,0.00066695,0.00010353,0.0,0 STARLINK-3579,1 51893U 22022AT  23047.06803263  .00010353  00000-0  66695-3 0  9995,2 51893  53.2161 336.3264 0001658  88.8710 271.2472 15.08878036 54588,6917.764,95.435,540.776,538.482,0.0
51893.0,STARLINK-3579,PAYLOAD,2023-02-16 12:45:40,15.08861095,0.0001517,53.2152,334.243,79.0012,281.115,0.00032586,4.905e-05,0.0,0 STARLINK-3579,1 51893U 22022AT  23047.53171388  .00004905  00000-0  32586-3 0  9991,2 51893  53.2152 334.2430 0001517  79.0012 281.1150 15.08861095 54659,6917.816,95.436,540.73,538.631,0.0
51893.0,STARLINK-3579,PAYLOAD,2023-02-16 22:17:59,15.08829894,0.0001248,53.2147,332.4605,78.3159,281.7973,-0.00054243,-8.908e-05,0.0,0 STARLINK-3579,1 51893U 22022AT  23047.92915743 -.00008908  00000-0 -54243-3 0  9998,2 51893  53.2147 332.4605 0001248  78.3159 281.7973 15.08829894 54719,6917.911,95.438,540.64,538.913,0.0
51893.0,STARLINK-3579,PAYLOAD,2023-02-17 01:28:45,15.08840886,0.000145,53.2151,331.8641,102.2343,257.8811,9.1441e-05,1.168e-05,0.0,0 STARLINK-3579,1 51893U 22022AT  23048.06163658  .00001168  00000-0  91441-4 0  9995,2 51893  53.2151 331.8641 0001450 102.2343 257.8811 15.08840886 54735,6917.878,95.437,540.746,538.74,0.0
51893.0,STARLINK-3579,PAYLOAD,2023-02-17 23:44:10,15.08821474,0.0001168,53.2142,327.7016,99.0378,261.0746,0.00049289,7.561e-05,0.0,0 STARLINK-3579,1 51893U 22022AT  23048.98901587  .00007561  00000-0  49289-3 0  9992,2 51893  53.2142 327.7016 0001168  99.0378 261.0746 15.08821474 54873,6917.937,95.439,540.61,538.994,0.0
51893.0,STARLINK-3579,PAYLOAD,2023-02-18 10:51:53,15.08834037,0.0001196,53.2164,325.6221,89.8347,270.2782,0.00080167,0.00012492,0.0,0 STARLINK-3579,1 51893U 22022AT  23049.45269993  .00012492  00000-0  80167-3 0  9992,2 51893  53.2164 325.6221 0001196  89.8347 270.2782 15.08834037 54945,6917.899,95.438,540.591,538.936,0.0
51893.0,STARLINK-3579,PAYLOAD,2023-02-19 01:10:20,15.08874189,0.0001114,53.2156,322.944,52.0064,308.1029,0.0013629,0.00021489,0.0,0 STARLINK-3579,1 51893U 22022AT  23050.04884897  .00021489  00000-0  13629-2 0  9999,2 51893  53.2156 322.9440 0001114  52.0064 308.1029 15.08874189 55035,6917.776,95.435,540.412,538.87,0.0
51893.0,STARLINK-3579,PAYLOAD,2023-02-19 23:25:43,15.08861949,0.0001169,53.2153,318.7801,63.9896,296.1217,0.0011518,0.00018101,0.0,0 STARLINK-3579,1 51893U 22022AT  23050.97620314  .00018101  00000-0  11518-2 0  9995,2 51893  53.2153 318.7801 0001169  63.9896 296.1217 15.08861949 55170,6917.813,95.436,540.487,538.87,0.0
51893.0,STARLINK-3579,PAYLOAD,2023-02-20 10:33:25,15.08838315,0.0001276,53.2154,316.7,95.2537,264.8601,0.0012472,0.00019616,0.0,0 STARLINK-3579,1 51893U 22022AT  23051.43988184  .00019616  00000-0  12472-2 0  9991,2 51893  53.2154 316.7000 0001276  95.2537 264.8601 15.08838315 55247,6917.886,95.438,540.633,538.868,0.0
51893.0,STARLINK-3579,PAYLOAD,2023-02-20 23:16:31,15.08839535,0.0001388,53.2152,314.3222,101.21,258.9048,0.00060568,9.364e-05,0.0,0 STARLINK-3579,1 51893U 22022AT  23051.96980418  .00009364  00000-0  60568-3 0  9990,2 51893  53.2152 314.3222 0001388 101.2100 258.9048 15.08839535 55326,6917.882,95.438,540.707,538.787,0.0
51893.0,STARLINK-3579,PAYLOAD,2023-02-21 10:24:12,15.0884847,0.000131,53.2149,312.2402,87.6508,272.4634,0.00065598,0.0001017,0.0,0 STARLINK-3579,1 51893U 22022AT  23052.43348320  .00010170  00000-0  65598-3 0  9998,2 51893  53.2149 312.2402 0001310  87.6508 272.4634 15.08848470 55390,6917.854,95.437,540.626,538.813,0.0
51893.0,STARLINK-3579,PAYLOAD,2023-02-21 16:45:45,15.0884396,0.0001428,53.2154,311.0528,86.3826,273.7329,0.00056848,8.772e-05,0.0,0 STARLINK-3579,1 51893U 22022AT  23052.69844452  .00008772  00000-0  56848-3 0  9996,2 51893  53.2154 311.0528 0001428  86.3826 273.7329 15.08843960 55430,6917.868,95.437,540.721,538.745,0.0
51893.0,STARLINK-3579,PAYLOAD,2023-02-22 02:18:03,15.08854497,0.0001282,53.2147,309.265,90.451,269.6629,0.00034846,5.264e-05,0.0,0 STARLINK-3579,1 51893U 22022AT  23053.09587875  .00005264  00000-0  34846-3 0  9991,2 51893  53.2147 309.2650 0001282  90.4510 269.6629 15.08854497 55491,6917.836,95.437,540.588,538.814,0.0
51893.0,STARLINK-3579,PAYLOAD,2023-02-22 16:36:33,15.08831131,0.0001503,53.2139,306.5895,86.8255,273.2909,-1.0607e-06,-3.05e-06,0.0,0 STARLINK-3579,1 51893U 22022AT  23053.69205141 -.00000305  00000-0 -10607-5 0  9994,2 51893  53.2139 306.5895 0001503  86.8255 273.2909 15.08831131 55586,6917.907,95.438,540.812,538.733,0.0
51893.0,STARLINK-3579,PAYLOAD,2023-02-22 22:58:05,15.08831142,0.0001657,53.2139,305.4004,81.5389,278.5791,9.667e-05,1.25e-05,0.0,0 STARLINK-3579,1 51893U 22022AT  23053.95701353  .00001250  00000-0  96670-4 0  9990,2 51893  53.2139 305.4004 0001657  81.5389 278.5791 15.08831142 55620,6917.907,95.438,540.919,538.626,0.0
51893.0,STARLINK-3579,PAYLOAD,2023-02-23 03:44:15,15.08834506,0.0001592,53.2141,304.5078,81.1585,278.9587,0.00014347,1.996e-05,0.0,0 STARLINK-3579,1 51893U 22022AT  23054.15573426  .00001996  00000-0  14347-3 0  9998,2 51893  53.2141 304.5078 0001592  81.1585 278.9587 15.08834506 55653,6917.897,95.438,540.864,538.661,0.0
51893.0,STARLINK-3579,PAYLOAD,2023-02-23 19:38:06,15.08852718,0.0001455,53.2135,301.5339,77.0998,283.0157,0.00062211,9.63e-05,0.0,0 STARLINK-3579,1 51893U 22022AT  23054.81813135  .00009630  00000-0  62211-3 0  9991,2 51893  53.2135 301.5339 0001455  77.0998 283.0157 15.08852718 55759,6917.842,95.437,540.713,538.7,0.0
51893.0,STARLINK-3579,PAYLOAD,2023-02-23 22:48:52,15.08864521,0.0001501,53.2138,300.9381,81.2963,278.8199,0.0012038,0.00018935,0.0,0 STARLINK-3579,1 51893U 22022AT  23054.95061014  .00018935  00000-0  12038-2 0  9996,2 51893  53.2138 300.9381 0001501  81.2963 278.8199 15.08864521 55778,6917.805,95.436,540.709,538.632,0.0
51893.0,STARLINK-3579,PAYLOAD,2023-02-24 16:18:07,15.08856177,0.0001538,53.2137,297.6673,73.8844,286.2318,0.00050984,7.839e-05,0.0,0 STARLINK-3579,1 51893U 22022AT  23055.67924808  .00007839  00000-0  50984-3 0  9999,2 51893  53.2137 297.6673 0001538  73.8844 286.2318 15.08856177 55884,6917.831,95.437,540.76,538.632,0.0
51893.0,STARLINK-3579,PAYLOAD,2023-02-24 19:28:53,15.08854065,0.0001151,53.2139,297.0724,95.523,264.5893,0.0004261,6.503e-05,0.0,0 STARLINK-3579,1 51893U 22022AT  23055.81172717  .00006503  00000-0  42610-3 0  9993,2 51893  53.2139 297.0724 0001151  95.5230 264.5893 15.08854065 55902,6917.837,95.437,540.499,538.906,0.0
